{
  "norad_id": 65126,
  "name": "GEESAT-4 08",
  "history": [
    {
      "epoch": "2026-04-13T06:15:15.452064Z",
      "apogee_km": 635.627177197709,
      "perigee_km": 606.1911487691268,
      "latitude_deg": -7.440451250115141e-06,
      "longitude_deg": 132.4510864105712,
      "height_km": 619.7435970699838,
      "semi_major_axis_km": 6999.046162983418,
      "eccentricity": 0.00210286,
      "inclination_deg": 49.9672,
      "raan_deg": 67.7194,
      "arg_perigee_deg": 83.5574,
      "mean_anomaly_deg": 276.7757,
      "mean_motion_rev_day": 14.82669914
    },
    {
      "epoch": "2026-04-14T21:04:30.481248Z",
      "apogee_km": 635.6142147481669,
      "perigee_km": 606.1762851049762,
      "latitude_deg": -1.9097304504123238e-05,
      "longitude_deg": -98.94535847469892,
      "height_km": 621.3371617765546,
      "semi_major_axis_km": 6999.032249926571,
      "eccentricity": 0.002103,
      "inclination_deg": 49.9675,
      "raan_deg": 60.2299,
      "arg_perigee_deg": 89.8311,
      "mean_anomaly_deg": 270.5036,
      "mean_motion_rev_day": 14.82674335
    },
    {
      "epoch": "2026-04-15T21:20:17.195424Z",
      "apogee_km": 635.6180212517447,
      "perigee_km": 606.1591226194687,
      "latitude_deg": -3.111877450904222e-05,
      "longitude_deg": -108.56735397845124,
      "height_km": 622.3275247718185,
      "semi_major_axis_km": 6999.025571935606,
      "eccentricity": 0.0021045,
      "inclination_deg": 49.9676,
      "raan_deg": 55.549,
      "arg_perigee_deg": 93.7119,
      "mean_anomaly_deg": 266.6225,
      "mean_motion_rev_day": 14.82676457
    },
    {
      "epoch": "2026-04-16T19:59:00.659328Z",
      "apogee_km": 635.6115426413462,
      "perigee_km": 606.1456869031545,
      "latitude_deg": 2.7843269000674143e-05,
      "longitude_deg": -93.5473163234354,
      "height_km": 623.250697067106,
      "semi_major_axis_km": 6999.01561477225,
      "eccentricity": 0.002105,
      "inclination_deg": 49.9678,
      "raan_deg": 51.1801,
      "arg_perigee_deg": 97.3558,
      "mean_anomaly_deg": 262.9773,
      "mean_motion_rev_day": 14.82679621
    },
    {
      "epoch": "2026-04-17T21:51:50.153760Z",
      "apogee_km": 635.6051662953623,
      "perigee_km": 606.1327720994295,
      "latitude_deg": 2.6448171493757798e-05,
      "longitude_deg": -127.80941379990628,
      "height_km": 624.3070575552792,
      "semi_major_axis_km": 6999.005969197396,
      "eccentricity": 0.00210547,
      "inclination_deg": 49.968,
      "raan_deg": 46.1871,
      "arg_perigee_deg": 101.5531,
      "mean_anomaly_deg": 258.7772,
      "mean_motion_rev_day": 14.82682686
    },
    {
      "epoch": "2026-04-18T17:16:27.124896Z",
      "apogee_km": 635.6079467598729,
      "perigee_km": 606.1155658006583,
      "latitude_deg": 1.1873652154038996e-06,
      "longitude_deg": -63.50533266160105,
      "height_km": 625.0805533431873,
      "semi_major_axis_km": 6998.998756280265,
      "eccentricity": 0.0021069,
      "inclination_deg": 49.9681,
      "raan_deg": 42.4424,
      "arg_perigee_deg": 104.6562,
      "mean_anomaly_deg": 255.6713,
      "mean_motion_rev_day": 14.82684978
    },
    {
      "epoch": "2026-04-19T19:09:53.506080Z",
      "apogee_km": 637.6915200509593,
      "perigee_km": 608.609571842604,
      "latitude_deg": -6.138071391187561e-06,
      "longitude_deg": -97.91975307163224,
      "height_km": 630.1806401844685,
      "semi_major_axis_km": 7001.287545946781,
      "eccentricity": 0.0020769,
      "inclination_deg": 49.9668,
      "raan_deg": 37.4512,
      "arg_perigee_deg": 116.7098,
      "mean_anomaly_deg": 243.5968,
      "mean_motion_rev_day": 14.81957981
    },
    {
      "epoch": "2026-04-20T11:20:52.775520Z",
      "apogee_km": 637.6743985149815,
      "perigee_km": 608.6168352444938,
      "latitude_deg": -1.6164394342803383e-05,
      "longitude_deg": 15.549963702821907,
      "height_km": 630.7828514802937,
      "semi_major_axis_km": 7001.282616879737,
      "eccentricity": 0.00207516,
      "inclination_deg": 49.9671,
      "raan_deg": 34.3325,
      "arg_perigee_deg": 119.4402,
      "mean_anomaly_deg": 240.8609,
      "mean_motion_rev_day": 14.81959546
    },
    {
      "epoch": "2026-04-21T19:42:51.012864Z",
      "apogee_km": 637.6716155986305,
      "perigee_km": 608.5925446013434,
      "latitude_deg": -3.109300616487554e-05,
      "longitude_deg": -117.50933934552236,
      "height_km": 631.8982193318682,
      "semi_major_axis_km": 7001.269080099987,
      "eccentricity": 0.0020767,
      "inclination_deg": 49.9674,
      "raan_deg": 28.0951,
      "arg_perigee_deg": 124.6493,
      "mean_anomaly_deg": 235.6405,
      "mean_motion_rev_day": 14.81963844
    },
    {
      "epoch": "2026-04-22T18:22:13.609056Z",
      "apogee_km": 637.6678104228322,
      "perigee_km": 608.5831657947301,
      "latitude_deg": 7.443010268688198e-06,
      "longitude_deg": -102.64992049804093,
      "height_km": 632.6329170690498,
      "semi_major_axis_km": 7001.262488108781,
      "eccentricity": 0.0020771,
      "inclination_deg": 49.9675,
      "raan_deg": 23.7291,
      "arg_perigee_deg": 128.2603,
      "mean_anomaly_deg": 232.0207,
      "mean_motion_rev_day": 14.81965937
    },
    {
      "epoch": "2026-04-23T13:47:24.215712Z",
      "apogee_km": 637.6621879947052,
      "perigee_km": 608.5703004641537,
      "latitude_deg": 2.005239255272648e-05,
      "longitude_deg": -38.48394111858348,
      "height_km": 633.235220380379,
      "semi_major_axis_km": 7001.25324422943,
      "eccentricity": 0.00207762,
      "inclination_deg": 49.9676,
      "raan_deg": 19.9868,
      "arg_perigee_deg": 131.373,
      "mean_anomaly_deg": 228.8998,
      "mean_motion_rev_day": 14.81968872
    },
    {
      "epoch": "2026-04-24T20:32:15.747648Z",
      "apogee_km": 637.6680688096167,
      "perigee_km": 608.531721347058,
      "latitude_deg": -4.602152950625268e-06,
      "longitude_deg": -146.8867406685807,
      "height_km": 634.150647452559,
      "semi_major_axis_km": 7001.236895078337,
      "eccentricity": 0.0020808,
      "inclination_deg": 49.9676,
      "raan_deg": 14.0615,
      "arg_perigee_deg": 136.3557,
      "mean_anomaly_deg": 223.903,
      "mean_motion_rev_day": 14.81974063
    },
    {
      "epoch": "2026-04-25T19:11:37.632768Z",
      "apogee_km": 637.6640953836704,
      "perigee_km": 608.5109963746299,
      "latitude_deg": 1.4510171615408394e-05,
      "longitude_deg": -132.02436498677525,
      "height_km": 634.7564470003778,
      "semi_major_axis_km": 7001.22454587915,
      "eccentricity": 0.002082,
      "inclination_deg": 49.9676,
      "raan_deg": 9.6955,
      "arg_perigee_deg": 139.9451,
      "mean_anomaly_deg": 220.3026,
      "mean_motion_rev_day": 14.81977984
    },
    {
      "epoch": "2026-04-26T22:42:16.837344Z",
      "apogee_km": 637.6710648364615,
      "perigee_km": 608.4712659651877,
      "latitude_deg": 2.5708557169987985e-05,
      "longitude_deg": 168.8805603720764,
      "height_km": 635.4574073054586,
      "semi_major_axis_km": 7001.208165400824,
      "eccentricity": 0.00208534,
      "inclination_deg": 49.9667,
      "raan_deg": 4.3936,
      "arg_perigee_deg": 144.3993,
      "mean_anomaly_deg": 215.834,
      "mean_motion_rev_day": 14.81983185
    },
    {
      "epoch": "2026-04-27T19:44:32.397216Z",
      "apogee_km": 637.670843285352,
      "perigee_km": 608.4422604450265,
      "latitude_deg": 2.5757778131103616e-05,
      "longitude_deg": -151.60245749248182,
      "height_km": 635.9394072621259,
      "semi_major_axis_km": 7001.193551865189,
      "eccentricity": 0.0020874,
      "inclination_deg": 49.9666,
      "raan_deg": 0.3394,
      "arg_perigee_deg": 147.7883,
      "mean_anomaly_deg": 212.4334,
      "mean_motion_rev_day": 14.81987825
    },
    {
      "epoch": "2026-04-28T20:00:59.357376Z",
      "apogee_km": 637.661792872188,
      "perigee_km": 608.4276584585004,
      "latitude_deg": -4.9211152807362955e-05,
      "longitude_deg": -161.38965754243787,
      "height_km": 636.4332153673665,
      "semi_major_axis_km": 7001.181725665344,
      "eccentricity": 0.0020878,
      "inclination_deg": 49.9666,
      "raan_deg": 355.6615,
      "arg_perigee_deg": 151.6782,
      "mean_anomaly_deg": 208.5294,
      "mean_motion_rev_day": 14.8199158
    },
    {
      "epoch": "2026-04-29T18:40:20.279136Z",
      "apogee_km": 637.6615210705568,
      "perigee_km": 608.4008387793783,
      "latitude_deg": -7.32349841040482e-06,
      "longitude_deg": -146.52343734822054,
      "height_km": 636.8500537555669,
      "semi_major_axis_km": 7001.168179924967,
      "eccentricity": 0.0020897,
      "inclination_deg": 49.9665,
      "raan_deg": 351.2953,
      "arg_perigee_deg": 155.3291,
      "mean_anomaly_deg": 204.865,
      "mean_motion_rev_day": 14.81995881
    },
    {
      "epoch": "2026-04-30T15:42:35.210016Z",
      "apogee_km": 637.6556957703788,
      "perigee_km": 608.3849771318501,
      "latitude_deg": -1.2645396229304831e-05,
      "longitude_deg": -107.00393268124115,
      "height_km": 637.1788575017135,
      "semi_major_axis_km": 7001.157336451114,
      "eccentricity": 0.00209042,
      "inclination_deg": 49.9664,
      "raan_deg": 347.241,
      "arg_perigee_deg": 158.6609,
      "mean_anomaly_deg": 201.5204,
      "mean_motion_rev_day": 14.81999324
    },
    {
      "epoch": "2026-05-02T09:47:04.411680Z",
      "apogee_km": 637.6587400276248,
      "perigee_km": 608.328204028111,
      "latitude_deg": -3.219755310867708e-05,
      "longitude_deg": -27.9624747753943,
      "height_km": 637.7178917953663,
      "semi_major_axis_km": 7001.130472027868,
      "eccentricity": 0.0020947,
      "inclination_deg": 49.9663,
      "raan_deg": 339.1321,
      "arg_perigee_deg": 165.4223,
      "mean_anomaly_deg": 194.7322,
      "mean_motion_rev_day": 14.82007854
    }
  ]
}